start=new Date('2022-10-06T00:00:00.000Z').valueOf();
sats=[{"ELEMENT_SET_NO":"999","PERIOD":"95.593","OBJECT_ID":"2020-057AG","SEMIMAJOR_AXIS":"6925.380","CLASSIFICATION_TYPE":"U","MEAN_ANOMALY":"264.2681","EPOCH":"2022-10-05T20:46:42.756960","ECCENTRICITY":"0.00011920","MEAN_ELEMENT_THEORY":"SGP4","MEAN_MOTION":"15.06389894","INCLINATION":"53.0529","MEAN_MOTION_DDOT":"0.0000000000000","FILE":"3593077","TLE_LINE2":"2 46147  53.0529 171.7918 0001192  95.8444 264.2681 15.06389894118797","MEAN_MOTION_DOT":"-0.00000227","OBJECT_TYPE":"PAYLOAD","TIME_SYSTEM":"UTC","SITE":"AFETR","APOAPSIS":"548.070","NORAD_CAT_ID":"46147","CENTER_NAME":"EARTH","GP_ID":"214272209","TLE_LINE1":"1 46147U 20057AG  22278.86577265 -.00000227  00000-0  36411-5 0  9995","LAUNCH_DATE":"2020-08-18","REF_FRAME":"TEME","REV_AT_EPOCH":"11879","BSTAR":"0.00000364110000","RA_OF_ASC_NODE":"171.7918","ARG_OF_PERICENTER":"95.8444","EPHEMERIS_TYPE":"0","COUNTRY_CODE":"US","RCS_SIZE":"LARGE","DECAY_DATE":null,"PERIAPSIS":"546.419","OBJECT_NAME":"STARLINK-1611"},{"OBJECT_NAME":"STARLINK-1616","PERIAPSIS":"546.511","DECAY_DATE":null,"RCS_SIZE":"LARGE","COUNTRY_CODE":"US","EPHEMERIS_TYPE":"0","ARG_OF_PERICENTER":"95.9908","RA_OF_ASC_NODE":"151.7716","BSTAR":"-0.00005096500000","REV_AT_EPOCH":"11781","LAUNCH_DATE":"2020-08-18","REF_FRAME":"TEME","GP_ID":"214272459","TLE_LINE1":"1 46148U 20057AH  22278.87130745 -.00001040  00000-0 -50965-4 0  9999","CENTER_NAME":"EARTH","NORAD_CAT_ID":"46148","APOAPSIS":"547.967","SITE":"AFETR","TIME_SYSTEM":"UTC","MEAN_MOTION_DOT":"-0.00001040","OBJECT_TYPE":"PAYLOAD","TLE_LINE2":"2 46148  53.0548 151.7716 0001051  95.9908 264.1200 15.06391672117818","FILE":"3593077","MEAN_MOTION_DDOT":"0.0000000000000","INCLINATION":"53.0548","MEAN_MOTION":"15.06391672","MEAN_ELEMENT_THEORY":"SGP4","ECCENTRICITY":"0.00010510","EPOCH":"2022-10-05T20:54:40.963680","MEAN_ANOMALY":"264.1200","CLASSIFICATION_TYPE":"U","SEMIMAJOR_AXIS":"6925.374","OBJECT_ID":"2020-057AH","PERIOD":"95.593","ELEMENT_SET_NO":"999"},{"MEAN_MOTION_DDOT":"0.0000000000000","MEAN_ELEMENT_THEORY":"SGP4","MEAN_MOTION":"15.06381775","INCLINATION":"53.0545","SITE":"AFETR","FILE":"3593077","TLE_LINE2":"2 46149  53.0545 151.6995 0001291  87.5352 272.5785 15.06381775119096","OBJECT_TYPE":"PAYLOAD","MEAN_MOTION_DOT":"-0.00001699","TIME_SYSTEM":"UTC","OBJECT_ID":"2020-057AJ","PERIOD":"95.593","ELEMENT_SET_NO":"999","CLASSIFICATION_TYPE":"U","MEAN_ANOMALY":"272.5785","EPOCH":"2022-10-05T21:14:33.545472","ECCENTRICITY":"0.00012910","SEMIMAJOR_AXIS":"6925.404","RA_OF_ASC_NODE":"151.6995","EPHEMERIS_TYPE":"0","ARG_OF_PERICENTER":"87.5352","PERIAPSIS":"546.375","OBJECT_NAME":"STARLINK-1620","COUNTRY_CODE":"US","DECAY_DATE":null,"RCS_SIZE":"LARGE","NORAD_CAT_ID":"46149","CENTER_NAME":"EARTH","APOAPSIS":"548.163","REF_FRAME":"TEME","LAUNCH_DATE":"2020-08-18","REV_AT_EPOCH":"11909","BSTAR":"-0.00009525500000","TLE_LINE1":"1 46149U 20057AJ  22278.88511048 -.00001699  00000-0 -95255-4 0  9991","GP_ID":"214273209"},{"SITE":"AFETR","TLE_LINE2":"2 46150  53.0551 171.7235 0001406  90.4680 269.6470 15.06385450117540","FILE":"3593077","OBJECT_TYPE":"PAYLOAD","MEAN_MOTION_DOT":"-0.00002500","TIME_SYSTEM":"UTC","MEAN_MOTION_DDOT":"0.0000000000000","MEAN_ELEMENT_THEORY":"SGP4","INCLINATION":"53.0551","MEAN_MOTION":"15.06385450","CLASSIFICATION_TYPE":"U","MEAN_ANOMALY":"269.6470","EPOCH":"2022-10-05T21:07:56.637696","ECCENTRICITY":"0.00014060","SEMIMAJOR_AXIS":"6925.393","OBJECT_ID":"2020-057AK","PERIOD":"95.593","ELEMENT_SET_NO":"999","PERIAPSIS":"546.284","OBJECT_NAME":"STARLINK-1629","COUNTRY_CODE":"US","DECAY_DATE":null,"RCS_SIZE":"LARGE","RA_OF_ASC_NODE":"171.7235","ARG_OF_PERICENTER":"90.4680","EPHEMERIS_TYPE":"0","LAUNCH_DATE":"2020-08-18","REF_FRAME":"TEME","BSTAR":"-0.00014908000000","REV_AT_EPOCH":"11754","TLE_LINE1":"1 46150U 20057AK  22278.88051664 -.00002500  00000-0 -14908-3 0  9993","GP_ID":"214273455","NORAD_CAT_ID":"46150","CENTER_NAME":"EARTH","APOAPSIS":"548.232"},{"INCLINATION":"53.0532","MEAN_MOTION":"15.06399347","MEAN_ELEMENT_THEORY":"SGP4","MEAN_MOTION_DDOT":"0.0000000000000","TIME_SYSTEM":"UTC","MEAN_MOTION_DOT":"0.00009651","OBJECT_TYPE":"PAYLOAD","TLE_LINE2":"2 46151  53.0532 151.8176 0001466 106.0420 254.0731 15.06399347117813","FILE":"3593077","SITE":"AFETR","PERIOD":"95.592","ELEMENT_SET_NO":"999","OBJECT_ID":"2020-057AL","SEMIMAJOR_AXIS":"6925.351","ECCENTRICITY":"0.00014660","EPOCH":"2022-10-05T20:33:26.777952","MEAN_ANOMALY":"254.0731","CLASSIFICATION_TYPE":"U","EPHEMERIS_TYPE":"0","ARG_OF_PERICENTER":"106.0420","RA_OF_ASC_NODE":"151.8176","DECAY_DATE":null,"RCS_SIZE":"LARGE","COUNTRY_CODE":"US","OBJECT_NAME":"STARLINK-1631","PERIAPSIS":"546.200","APOAPSIS":"548.231","CENTER_NAME":"EARTH","NORAD_CAT_ID":"46151","GP_ID":"214271710","TLE_LINE1":"1 46151U 20057AL  22278.85655993  .00009651  00000-0  66589-3 0  9990","REV_AT_EPOCH":"11781","BSTAR":"0.00066589000000","LAUNCH_DATE":"2020-08-18","REF_FRAME":"TEME"},{"OBJECT_NAME":"STARLINK-1634","PERIAPSIS":"546.400","RCS_SIZE":"LARGE","DECAY_DATE":null,"COUNTRY_CODE":"US","RA_OF_ASC_NODE":"173.6960","EPHEMERIS_TYPE":"0","ARG_OF_PERICENTER":"96.5760","REF_FRAME":"TEME","LAUNCH_DATE":"2020-08-18","BSTAR":"0.00002265500000","REV_AT_EPOCH":"11747","TLE_LINE1":"1 46152U 20057AM  22278.44188849  .00000056  00000-0  22655-4 0  9994","GP_ID":"214239011","CENTER_NAME":"EARTH","NORAD_CAT_ID":"46152","APOAPSIS":"548.051","SITE":"AFETR","OBJECT_TYPE":"PAYLOAD","MEAN_MOTION_DOT":"0.00000056","TIME_SYSTEM":"UTC","FILE":"3592692","TLE_LINE2":"2 46152  53.0525 173.6960 0001192  96.5760 263.5364 15.06396234117476","MEAN_MOTION_DDOT":"0.0000000000000","MEAN_MOTION":"15.06396234","INCLINATION":"53.0525","MEAN_ELEMENT_THEORY":"SGP4","EPOCH":"2022-10-05T10:36:19.165536","ECCENTRICITY":"0.00011920","CLASSIFICATION_TYPE":"U","MEAN_ANOMALY":"263.5364","SEMIMAJOR_AXIS":"6925.360","OBJECT_ID":"2020-057AM","PERIOD":"95.592","ELEMENT_SET_NO":"999"},{"SEMIMAJOR_AXIS":"6925.386","ECCENTRICITY":"0.00012910","EPOCH":"2022-10-05T20:59:59.140320","MEAN_ANOMALY":"260.6604","CLASSIFICATION_TYPE":"U","PERIOD":"95.593","ELEMENT_SET_NO":"999","OBJECT_ID":"2020-057AN","TIME_SYSTEM":"UTC","MEAN_MOTION_DOT":"-0.00001273","OBJECT_TYPE":"PAYLOAD","TLE_LINE2":"2 46153  53.0527 151.7446 0001291  99.4531 260.6604 15.06387800117815","FILE":"3593077","SITE":"AFETR","MEAN_MOTION":"15.06387800","INCLINATION":"53.0527","MEAN_ELEMENT_THEORY":"SGP4","MEAN_MOTION_DDOT":"0.0000000000000","TLE_LINE1":"1 46153U 20057AN  22278.87499005 -.00001273  00000-0 -66592-4 0  9993","GP_ID":"214272711","BSTAR":"-0.00006659200000","REV_AT_EPOCH":"11781","LAUNCH_DATE":"2020-08-18","REF_FRAME":"TEME","APOAPSIS":"548.145","CENTER_NAME":"EARTH","NORAD_CAT_ID":"46153","DECAY_DATE":null,"RCS_SIZE":"LARGE","COUNTRY_CODE":"US","OBJECT_NAME":"STARLINK-1636","PERIAPSIS":"546.357","EPHEMERIS_TYPE":"0","ARG_OF_PERICENTER":"99.4531","RA_OF_ASC_NODE":"151.7446"},{"OBJECT_ID":"2020-057AP","PERIOD":"95.592","ELEMENT_SET_NO":"999","EPOCH":"2022-10-05T21:14:35.320128","ECCENTRICITY":"0.00013100","CLASSIFICATION_TYPE":"U","MEAN_ANOMALY":"268.1105","SEMIMAJOR_AXIS":"6925.362","MEAN_MOTION_DDOT":"0.0000000000000","INCLINATION":"53.0542","MEAN_MOTION":"15.06395500","MEAN_ELEMENT_THEORY":"SGP4","SITE":"AFETR","OBJECT_TYPE":"PAYLOAD","MEAN_MOTION_DOT":"-0.00001797","TIME_SYSTEM":"UTC","FILE":"3593077","TLE_LINE2":"2 46154  53.0542 161.7017 0001310  92.0034 268.1105 15.06395500117687","CENTER_NAME":"EARTH","NORAD_CAT_ID":"46154","APOAPSIS":"548.135","LAUNCH_DATE":"2020-08-18","REF_FRAME":"TEME","BSTAR":"-0.00010180000000","REV_AT_EPOCH":"11768","TLE_LINE1":"1 46154U 20057AP  22278.88513102 -.00001797  00000-0 -10180-3 0  9992","GP_ID":"214272957","RA_OF_ASC_NODE":"161.7017","ARG_OF_PERICENTER":"92.0034","EPHEMERIS_TYPE":"0","OBJECT_NAME":"STARLINK-1642","PERIAPSIS":"546.320","DECAY_DATE":null,"RCS_SIZE":"LARGE","COUNTRY_CODE":"US"},{"ELEMENT_SET_NO":"999","PERIOD":"95.592","OBJECT_ID":"2020-057AQ","SEMIMAJOR_AXIS":"6925.355","MEAN_ANOMALY":"256.2915","CLASSIFICATION_TYPE":"U","ECCENTRICITY":"0.00011620","EPOCH":"2022-10-05T20:14:52.340640","MEAN_ELEMENT_THEORY":"SGP4","MEAN_MOTION":"15.06398040","INCLINATION":"53.0530","MEAN_MOTION_DDOT":"0.0000000000000","TLE_LINE2":"2 46155  53.0530 131.8924 0001162 103.8203 256.2915 15.06398040119337","FILE":"3593077","TIME_SYSTEM":"UTC","OBJECT_TYPE":"PAYLOAD","MEAN_MOTION_DOT":"0.00000015","SITE":"AFETR","APOAPSIS":"548.024","NORAD_CAT_ID":"46155","CENTER_NAME":"EARTH","GP_ID":"214272210","TLE_LINE1":"1 46155U 20057AQ  22278.84366135  .00000015  00000-0  19865-4 0  9991","BSTAR":"0.00001986500000","REV_AT_EPOCH":"11933","REF_FRAME":"TEME","LAUNCH_DATE":"2020-08-18","ARG_OF_PERICENTER":"103.8203","EPHEMERIS_TYPE":"0","RA_OF_ASC_NODE":"131.8924","COUNTRY_CODE":"US","DECAY_DATE":null,"RCS_SIZE":"LARGE","PERIAPSIS":"546.415","OBJECT_NAME":"STARLINK-1667"},{"RA_OF_ASC_NODE":"151.9390","ARG_OF_PERICENTER":"88.2144","EPHEMERIS_TYPE":"0","DECAY_DATE":null,"RCS_SIZE":"LARGE","COUNTRY_CODE":"US","OBJECT_NAME":"STARLINK-1545","PERIAPSIS":"546.338","APOAPSIS":"548.108","CENTER_NAME":"EARTH","NORAD_CAT_ID":"46156","TLE_LINE1":"1 46156U 20057AR  22278.83444650  .00013537  00000-0  92599-3 0  9997","GP_ID":"214272460","REF_FRAME":"TEME","LAUNCH_DATE":"2020-08-18","BSTAR":"0.00092599000000","REV_AT_EPOCH":"11906","INCLINATION":"53.0547","MEAN_MOTION":"15.06396878","MEAN_ELEMENT_THEORY":"SGP4","MEAN_MOTION_DDOT":"0.0000000000000","OBJECT_TYPE":"PAYLOAD","MEAN_MOTION_DOT":"0.00013537","TIME_SYSTEM":"UTC","TLE_LINE2":"2 46156  53.0547 151.9390 0001278  88.2144 271.8992 15.06396878119069","FILE":"3593077","SITE":"AFETR","ELEMENT_SET_NO":"999","PERIOD":"95.592","OBJECT_ID":"2020-057AR","SEMIMAJOR_AXIS":"6925.358","EPOCH":"2022-10-05T20:01:36.177600","ECCENTRICITY":"0.00012780","CLASSIFICATION_TYPE":"U","MEAN_ANOMALY":"271.8992"}];
